{
  "type": "FeatureCollection",
  "name": "gangnae_farmland_osm_demo",
  "crs": {
    "type": "name",
    "properties": {
      "name": "urn:ogc:def:crs:OGC:1.3:CRS84"
    }
  },
  "features": [
    {
      "type": "Feature",
      "properties": {
        "source": "OpenStreetMap",
        "osm_relation_id": 5635499,
        "landuse": "farmland",
        "boundary_status": "demo_candidate_not_cadastral"
      },
      "geometry": {
        "type": "MultiPolygon",
        "coordinates": [
          [
            [
              [
                127.3080924,
                36.5866348
              ],
              [
                127.3085802,
                36.5850287
              ],
              [
                127.3136323,
                36.585329
              ],
              [
                127.3135981,
                36.585952
              ],
              [
                127.3148492,
                36.5858453
              ],
              [
                127.3156925,
                36.5862257
              ],
              [
                127.3157928,
                36.5867262
              ],
              [
                127.3160091,
                36.5875346
              ],
              [
                127.3165016,
                36.5885058
              ],
              [
                127.316449,
                36.5888234
              ],
              [
                127.3168223,
                36.5891392
              ],
              [
                127.3171308,
                36.5892989
              ],
              [
                127.3177128,
                36.5883828
              ],
              [
                127.3184476,
                36.5885743
              ],
              [
                127.3195175,
                36.5890052
              ],
              [
                127.320115,
                36.5881073
              ],
              [
                127.3198606,
                36.5876707
              ],
              [
                127.3207305,
                36.5880785
              ],
              [
                127.3209436,
                36.587878
              ],
              [
                127.322648,
                36.5891452
              ],
              [
                127.3230847,
                36.5886909
              ],
              [
                127.3246141,
                36.5899706
              ],
              [
                127.3271605,
                36.5915156
              ],
              [
                127.328875,
                36.5932025
              ],
              [
                127.3304524,
                36.5950173
              ],
              [
                127.3312167,
                36.5962707
              ],
              [
                127.333217,
                36.5981769
              ],
              [
                127.3350545,
                36.6000177
              ],
              [
                127.3373475,
                36.6015451
              ],
              [
                127.3387623,
                36.6030595
              ],
              [
                127.3395103,
                36.6057618
              ],
              [
                127.3393152,
                36.6066495
              ],
              [
                127.3388273,
                36.6078244
              ],
              [
                127.3373312,
                36.6093908
              ],
              [
                127.3356075,
                36.6103307
              ],
              [
                127.3335097,
                36.6119493
              ],
              [
                127.332379,
                36.6132525
              ],
              [
                127.3307352,
                36.6122934
              ],
              [
                127.3302736,
                36.6110747
              ],
              [
                127.3291741,
                36.6093975
              ],
              [
                127.3291659,
                36.6092204
              ],
              [
                127.3286699,
                36.6087775
              ],
              [
                127.3282246,
                36.6081638
              ],
              [
                127.327509,
                36.6071717
              ],
              [
                127.32707,
                36.606049
              ],
              [
                127.3271513,
                36.6051483
              ],
              [
                127.327444,
                36.6042214
              ],
              [
                127.3277855,
                36.6033728
              ],
              [
                127.3279156,
                36.6025373
              ],
              [
                127.3278831,
                36.6018846
              ],
              [
                127.3274603,
                36.6013624
              ],
              [
                127.327057,
                36.6005183
              ],
              [
                127.3270049,
                36.6004093
              ],
              [
                127.326761,
                36.5993519
              ],
              [
                127.3265821,
                36.5984249
              ],
              [
                127.3262406,
                36.5975241
              ],
              [
                127.325395,
                36.5967668
              ],
              [
                127.3243055,
                36.5956832
              ],
              [
                127.323037,
                36.5951348
              ],
              [
                127.3218011,
                36.5952001
              ],
              [
                127.3200774,
                36.5945995
              ],
              [
                127.318256,
                36.5934506
              ],
              [
                127.3166461,
                36.5923147
              ],
              [
                127.3162753,
                36.5918185
              ],
              [
                127.316207,
                36.5917271
              ],
              [
                127.3137515,
                36.5899644
              ],
              [
                127.3112472,
                36.5882148
              ],
              [
                127.3097511,
                36.5870657
              ],
              [
                127.3088404,
                36.5867524
              ],
              [
                127.3080924,
                36.5866348
              ]
            ],
            [
              [
                127.3345925,
                36.6103289
              ],
              [
                127.3346208,
                36.6100278
              ],
              [
                127.3352083,
                36.6096187
              ],
              [
                127.3350172,
                36.6093744
              ],
              [
                127.3352578,
                36.6091926
              ],
              [
                127.3348544,
                36.6089198
              ],
              [
                127.3335307,
                36.6099369
              ],
              [
                127.3334104,
                36.6101414
              ],
              [
                127.3345925,
                36.6103289
              ]
            ],
            [
              [
                127.3324626,
                36.6090214
              ],
              [
                127.3329622,
                36.6085961
              ],
              [
                127.3323774,
                36.6081534
              ],
              [
                127.3318778,
                36.6085788
              ],
              [
                127.3324626,
                36.6090214
              ]
            ],
            [
              [
                127.333846,
                36.5998117
              ],
              [
                127.333567,
                36.6001261
              ],
              [
                127.3326015,
                36.6001132
              ],
              [
                127.3326551,
                36.6005697
              ],
              [
                127.3323332,
                36.6005051
              ],
              [
                127.3321938,
                36.6000529
              ],
              [
                127.3315929,
                36.5999625
              ],
              [
                127.3311584,
                36.5998591
              ],
              [
                127.3316144,
                36.5996567
              ],
              [
                127.3323171,
                36.5995921
              ],
              [
                127.3322849,
                36.5993983
              ],
              [
                127.3328643,
                36.5993724
              ],
              [
                127.3328804,
                36.5995275
              ],
              [
                127.3335349,
                36.5995878
              ],
              [
                127.333846,
                36.5998117
              ]
            ]
          ]
        ]
      }
    },
    {
      "type": "Feature",
      "properties": {
        "source": "OpenStreetMap",
        "osm_relation_id": 5635517,
        "landuse": "farmland",
        "boundary_status": "demo_candidate_not_cadastral"
      },
      "geometry": {
        "type": "MultiPolygon",
        "coordinates": [
          [
            [
              [
                127.3382164,
                36.6115901
              ],
              [
                127.3398687,
                36.6121585
              ],
              [
                127.3407055,
                36.6137086
              ],
              [
                127.341482,
                36.6152281
              ],
              [
                127.3422806,
                36.6171098
              ],
              [
                127.3423967,
                36.6177069
              ],
              [
                127.3422285,
                36.6184094
              ],
              [
                127.3416019,
                36.6191508
              ],
              [
                127.3444533,
                36.6217046
              ],
              [
                127.3462067,
                36.6227998
              ],
              [
                127.3482148,
                36.6232981
              ],
              [
                127.3487951,
                36.6238698
              ],
              [
                127.3491813,
                36.6247481
              ],
              [
                127.3474647,
                36.6281061
              ],
              [
                127.3467137,
                36.6294321
              ],
              [
                127.3445465,
                36.6311368
              ],
              [
                127.3435809,
                36.6322906
              ],
              [
                127.3428728,
                36.633978
              ],
              [
                127.3424865,
                36.635631
              ],
              [
                127.3416497,
                36.636337
              ],
              [
                127.3368002,
                36.6339608
              ],
              [
                127.3355128,
                36.6330482
              ],
              [
                127.3340307,
                36.6302556
              ],
              [
                127.3347164,
                36.6299628
              ],
              [
                127.3351615,
                36.629757
              ],
              [
                127.3358516,
                36.6292177
              ],
              [
                127.3362905,
                36.6287519
              ],
              [
                127.3367777,
                36.6277808
              ],
              [
                127.3378336,
                36.6250642
              ],
              [
                127.3367968,
                36.6245362
              ],
              [
                127.3370792,
                36.6239904
              ],
              [
                127.3357703,
                36.6239904
              ],
              [
                127.334912,
                36.6226643
              ],
              [
                127.3347687,
                36.6216635
              ],
              [
                127.3363124,
                36.6200141
              ],
              [
                127.3350953,
                36.6192698
              ],
              [
                127.3374976,
                36.6167054
              ],
              [
                127.3349763,
                36.6146387
              ],
              [
                127.3382164,
                36.6115901
              ]
            ],
            [
              [
                127.3398258,
                36.6294235
              ],
              [
                127.3419608,
                36.6286658
              ],
              [
                127.342626,
                36.6297851
              ],
              [
                127.3433175,
                36.6298172
              ],
              [
                127.3433663,
                36.6298195
              ],
              [
                127.3429908,
                36.6301812
              ],
              [
                127.3424651,
                36.6306116
              ],
              [
                127.3418213,
                36.6301725
              ],
              [
                127.3411561,
                36.63025
              ],
              [
                127.3413493,
                36.6304825
              ],
              [
                127.3405339,
                36.6306719
              ],
              [
                127.3398258,
                36.6294235
              ]
            ]
          ]
        ]
      }
    }
  ]
}